{"type":"FeatureCollection","metadata":{"name":"babay kogon free","creator":"Yandex Map Constructor"},"features":[{"type":"Feature","id":0,"geometry":{"type":"Polygon","coordinates":[[[64.52507659771724,39.73073386761421],[64.52031057360816,39.73198606879552],[64.51557892186239,39.73316129384871],[64.51461920383409,39.72994906254295],[64.51942572238875,39.72895496706445],[64.52242979648541,39.72670163048967],[64.52488659309324,39.7242485864762],[64.53145264076167,39.717289034802874],[64.53355549262933,39.71609589772097],[64.53625420067203,39.71547353785193],[64.53955868217838,39.71590439922766],[64.54397896263494,39.71892035289825],[64.55149656182368,39.724744891317684],[64.56055169945793,39.73216757893989],[64.56196790581782,39.733559243193476],[64.56102376824457,39.73395685635018],[64.560380038081,39.73567981998193],[64.55776220208249,39.73683948259936],[64.55874925499995,39.738628637773445],[64.55952234352434,39.74079993232279],[64.55874986732807,39.74109811083108],[64.55347127998674,39.74189324716219],[64.54979583599845,39.74107148547986],[64.53769370892327,39.737658919028576],[64.52507659771724,39.73073386761421]]]},"properties":{"description":"free","fill":"#ed4543","fill-opacity":0.6,"stroke":"#ed4543","stroke-width":"5","stroke-opacity":0.9}}]}