{"type":"FeatureCollection","metadata":{"name":"babay kogon ","creator":"Yandex Map Constructor"},"features":[{"type":"Feature","id":0,"geometry":{"type":"Polygon","coordinates":[[[64.52507659771724,39.73073386761421],[64.52031057360816,39.73198606879552],[64.51557892186239,39.73316129384871],[64.51461920383409,39.72994906254295],[64.51942572238875,39.72895496706445],[64.52242979648541,39.72670163048967],[64.52488659309324,39.7242485864762],[64.53145264076167,39.717289034802874],[64.53355549262933,39.71609589772097],[64.53625420067203,39.71547353785193],[64.53955868217838,39.71590439922766],[64.54397896263494,39.71892035289825],[64.55149656182368,39.724744891317684],[64.56055169945793,39.73216757893989],[64.56196790581782,39.733559243193476],[64.56102376824457,39.73395685635018],[64.560380038081,39.73567981998193],[64.55776220208249,39.73683948259936],[64.55874925499995,39.738628637773445],[64.55952234352434,39.74079993232279],[64.55874986732807,39.74109811083108],[64.55347127998674,39.74189324716219],[64.54979583599845,39.74107148547986],[64.53769370892327,39.737658919028576],[64.52507659771724,39.73073386761421]]]},"properties":{"description":"free","fill":"#ed4543","fill-opacity":0.6,"stroke":"#ed4543","stroke-width":"5","stroke-opacity":0.9}},{"type":"Feature","id":1,"geometry":{"type":"Polygon","coordinates":[[[64.50606896338323,39.73530344153071],[64.50373964178027,39.73160988134563],[64.51457576620041,39.72967142879164],[64.51554136144583,39.73320036534748],[64.5250471101947,39.73074835344951],[64.53772859441715,39.737689969631845],[64.55345706808052,39.74194736643477],[64.5587141977497,39.741102534444686],[64.55950813161812,39.740804355955696],[64.5587571130939,39.738650806034975],[64.55772918819373,39.736890465639355],[64.5603684818644,39.735697670404655],[64.56101221202798,39.73395814002869],[64.56195634960123,39.73354395961473],[64.55236477016403,39.72544208624967],[64.53964608624288,39.71590589668474],[64.53623431637595,39.715441892024046],[64.53348773434472,39.71607161187252],[64.5314063401492,39.71728132055604],[64.52801602795438,39.72094345899622],[64.52240484669521,39.72670968688884],[64.52162164166285,39.727314449877255],[64.52037709667995,39.728250579301566],[64.51974409535244,39.72872278131814],[64.51940077259854,39.72892988643735],[64.51825278714013,39.729178411752606],[64.5146371693881,39.72995711855963],[64.51434749081457,39.72977486876585],[64.51434749081457,39.72871449704121],[64.51366084530673,39.72559956003167],[64.51306003048742,39.723080996618144],[64.51254504635652,39.72003208527107],[64.51233046963537,39.71741388989618],[64.53099864437898,39.71519331656778],[64.53522462253099,39.712577326947596],[64.53814286593918,39.71261047162933],[64.55153245334182,39.721625228778926],[64.56131715182822,39.72947903068824],[64.56273335818805,39.73034057433655],[64.56944143530843,39.73064527290451],[64.571158049078,39.73097663148031],[64.57249861472775,39.73157620721985],[64.5735761334974,39.7373496255491],[64.56821171546764,39.73917189918958],[64.56653801704233,39.74168987011883],[64.56123314546913,39.7444477885559],[64.55707035707799,39.74550791633135],[64.55275754840574,39.74539106150109],[64.54120518328133,39.743711317734025],[64.5401752150196,39.74364505848837],[64.53886629702035,39.743495974950875],[64.53768612505378,39.74296589751786],[64.53379227576085,39.739676947906716],[64.53095986304108,39.73787125394668],[64.52915741858308,39.736993238735735],[64.52857806143588,39.73760619393895],[64.52323510107823,39.74004139411502],[64.52267720160313,39.740240182137114],[64.52128245291534,39.740803411698195],[64.52033831534214,39.74111815562501],[64.51913668570347,39.74156542081801],[64.51829983649084,39.74201268305547],[64.51763464865516,39.741283809741354],[64.51632573065591,39.740670887446946],[64.5152099317057,39.73956098725349],[64.51512410101724,39.739064011177746],[64.51514555868938,39.73734113281507],[64.51546742377117,39.735999245556954],[64.51557471213175,39.735154340099584],[64.51392247137865,39.7363140114509],[64.51229168829761,39.73750679593462],[64.5100600903972,39.73898118133274],[64.50862242636532,39.740057959509905],[64.50675560889096,39.74135007097984],[64.50561835226866,39.74209550881402],[64.50538231787534,39.74204581324082],[64.5052750295148,39.74065432163876],[64.50546814856386,39.739246235892175],[64.50606896338323,39.73530344153071]]]},"properties":{"description":"50 000\n","fill":"#82cdff","fill-opacity":0.6,"stroke":"#82cdff","stroke-width":"5","stroke-opacity":0.9}}]}