{"type":"FeatureCollection","metadata":{"name":"babay kogon ","creator":"Yandex Map Constructor"},"features":[{"type":"Feature","id":0,"geometry":{"type":"Polygon","coordinates":[[[64.52507659771724,39.73073386761421],[64.52031057360816,39.73198606879552],[64.51557892186239,39.73316129384871],[64.51461920383409,39.72994906254295],[64.51942572238875,39.72895496706445],[64.52242979648541,39.72670163048967],[64.52488659309324,39.7242485864762],[64.53145264076167,39.717289034802874],[64.53355549262933,39.71609589772097],[64.53625420067203,39.71547353785193],[64.53955868217838,39.71590439922766],[64.54397896263494,39.71892035289825],[64.55149656182368,39.724744891317684],[64.56055169945793,39.73216757893989],[64.56196790581782,39.733559243193476],[64.56102376824457,39.73395685635018],[64.560380038081,39.73567981998193],[64.55776220208249,39.73683948259936],[64.55874925499995,39.738628637773445],[64.55952234352434,39.74079993232279],[64.55874986732807,39.74109811083108],[64.55347127998674,39.74189324716219],[64.54979583599845,39.74107148547986],[64.53769370892327,39.737658919028576],[64.52507659771724,39.73073386761421]]]},"properties":{"description":"free","fill":"#56db40","fill-opacity":0.6,"stroke":"#56db40","stroke-width":"5","stroke-opacity":0.9}},{"type":"Feature","id":1,"geometry":{"type":"Polygon","coordinates":[[[64.50606896338323,39.73530344153071],[64.50373964178027,39.73160988134563],[64.51457576620041,39.72967142879164],[64.51554136144583,39.73320036534748],[64.5250471101947,39.73074835344951],[64.53772859441715,39.737689969631845],[64.55345706808052,39.74194736643477],[64.5587141977497,39.741102534444686],[64.55950813161812,39.740804355955696],[64.5587571130939,39.738650806034975],[64.55772918819373,39.736890465639355],[64.5603684818644,39.735697670404655],[64.56101221202798,39.73395814002869],[64.56195634960123,39.73354395961473],[64.55236477016403,39.72544208624967],[64.53964608624288,39.71590589668474],[64.53623431637595,39.715441892024046],[64.53348773434472,39.71607161187252],[64.5314063401492,39.71728132055604],[64.52801602795438,39.72094345899622],[64.52240484669521,39.72670968688884],[64.52162164166285,39.727314449877255],[64.52037709667995,39.728250579301566],[64.51974409535244,39.72872278131814],[64.51940077259854,39.72892988643735],[64.51825278714013,39.729178411752606],[64.5146371693881,39.72995711855963],[64.51434749081457,39.72977486876585],[64.51434749081457,39.72871449704121],[64.51366084530673,39.72559956003167],[64.51306003048742,39.723080996618144],[64.51254504635652,39.72003208527107],[64.51233046963537,39.71741388989618],[64.53099864437898,39.71519331656778],[64.53522462253099,39.712577326947596],[64.53814286593918,39.71261047162933],[64.55153245334182,39.721625228778926],[64.56131715182822,39.72947903068824],[64.56273335818805,39.73034057433655],[64.56944143530843,39.73064527290451],[64.571158049078,39.73097663148031],[64.57249861472775,39.73157620721985],[64.5735761334974,39.7373496255491],[64.56821171546764,39.73917189918958],[64.56653801704233,39.74168987011883],[64.56123314546913,39.7444477885559],[64.55707035707799,39.74550791633135],[64.55275754840574,39.74539106150109],[64.54120518328133,39.743711317734025],[64.5401752150196,39.74364505848837],[64.53886629702035,39.743495974950875],[64.53768612505378,39.74296589751786],[64.53379227576085,39.739676947906716],[64.53095986304108,39.73787125394668],[64.52915741858308,39.736993238735735],[64.52857806143588,39.73760619393895],[64.52323510107823,39.74004139411502],[64.52267720160313,39.740240182137114],[64.52128245291534,39.740803411698195],[64.52033831534214,39.74111815562501],[64.51913668570347,39.74156542081801],[64.51829983649084,39.74201268305547],[64.51763464865516,39.741283809741354],[64.51632573065591,39.740670887446946],[64.5152099317057,39.73956098725349],[64.51512410101724,39.739064011177746],[64.51514555868938,39.73734113281507],[64.51546742377117,39.735999245556954],[64.51557471213175,39.735154340099584],[64.51392247137865,39.7363140114509],[64.51229168829761,39.73750679593462],[64.5100600903972,39.73898118133274],[64.50862242636532,39.740057959509905],[64.50675560889096,39.74135007097984],[64.50561835226866,39.74209550881402],[64.50538231787534,39.74204581324082],[64.5052750295148,39.74065432163876],[64.50546814856386,39.739246235892175],[64.50606896338323,39.73530344153071]]]},"properties":{"description":"50 000\n","fill":"#ffd21e","fill-opacity":0.6,"stroke":"#ffd21e","stroke-width":"5","stroke-opacity":0.9}},{"type":"Feature","id":2,"geometry":{"type":"Polygon","coordinates":[[[64.48051363456064,39.74613209839824],[64.47156042086792,39.716264437028606],[64.49679464328007,39.69345832001592],[64.5172223471375,39.69007653390594],[64.52812284457401,39.6907396423825],[64.54382986056522,39.69312677971145],[64.5516404532166,39.7012822045355],[64.57318395602425,39.704663437260955],[64.58056539523325,39.70844226448286],[64.58803266513068,39.722760137675586],[64.58743185031132,39.743038663018524],[64.58691686618053,39.751254392580826],[64.58279699313366,39.751983159618064],[64.58726018893442,39.768212774959885],[64.58974927890024,39.780200341128655],[64.57172483432015,39.78258435754047],[64.56005186068734,39.78331279039501],[64.55653280245983,39.770597209907216],[64.54666227328511,39.7700342256815],[64.5315560721132,39.77049785996524],[64.52674955355855,39.7607608790925],[64.52374547946184,39.75009497428321],[64.52155679690568,39.748736773667716],[64.51850980746475,39.748836155109224],[64.51700777041646,39.74529146103012],[64.51827377307154,39.74211101822393],[64.51913207995634,39.741614060683645],[64.52106327044706,39.740968010480834],[64.52855199801658,39.73768796909565],[64.52917427050805,39.73700874894825],[64.5335730932925,39.739559931164976],[64.53754276263457,39.743055227539365],[64.53917354571563,39.743568739325546],[64.55267042147858,39.745390847185234],[64.55679029452546,39.74563931262082],[64.56138223635895,39.744546057659285],[64.56657499301176,39.741763147999755],[64.56833452212554,39.73921204799019],[64.57365602481113,39.737422908052174],[64.57254022586093,39.731591312302356],[64.56940740573152,39.73056410472378],[64.56275552737462,39.73026588024946],[64.552198352692,39.72208076850013],[64.5381650351261,39.71260204712695],[64.53528970706216,39.712568902352416],[64.5309552572941,39.71522042649329],[64.52524751651045,39.715817005267034],[64.51220125186205,39.717440998794125],[64.51426118838552,39.729768836382036],[64.5036825560308,39.73165758260828],[64.50597852694756,39.735236117271775],[64.50516313540705,39.7401728623839],[64.50546354281667,39.74217727792154],[64.5017084501959,39.7435687384386],[64.49651569354315,39.746997573838456],[64.49269622790591,39.749929340216866],[64.4910010718085,39.748256426784614],[64.48902696597362,39.75052561614673],[64.48766440379404,39.750997664352255],[64.48662370669632,39.75120470201032],[64.48628038394253,39.750177788889594],[64.48194593417449,39.75100594566368],[64.48051363456064,39.74613209839824]]]},"properties":{"description":"80 000","fill":"#ed4543","fill-opacity":0.6,"stroke":"#ed4543","stroke-width":"5","stroke-opacity":0.9}}]}