{"type":"FeatureCollection","metadata":{"name":"Bukhoro","creator":"Yandex Map Constructor"},"features":[{"type":"Feature","id":0,"geometry":{"type":"Polygon","coordinates":[[[64.42855153973332,39.729372809701765],[64.43893701312842,39.72939369362465],[64.44151193378272,39.73008955751315],[64.45172578571145,39.733436232546225],[64.44885045764751,39.73824057854864],[64.44600224736159,39.744002984948175],[64.44244027378987,39.75077762485184],[64.45447802784874,39.7546201539244],[64.45894122364956,39.75647509061881],[64.45634484532314,39.77207444057131],[64.44909215214687,39.773283158680506],[64.4456803822802,39.7753859457263],[64.44359898808464,39.77695885448774],[64.4419467473315,39.77848205796941],[64.4408524060534,39.77929331553641],[64.4362390065478,39.78018734323461],[64.43226933720572,39.780915801664655],[64.4299948239611,39.78108135931482],[64.42907214406016,39.78123036070901],[64.42514539006234,39.78341567929631],[64.42181945088393,39.783862667603444],[64.41746354344376,39.78371367177702],[64.41415906193741,39.783614341035566],[64.41151976826674,39.78207469651911],[64.40819382908833,39.78194225226948],[64.40409541371358,39.78164425196787],[64.40280795338657,39.781313138877906],[64.39360261204747,39.77800192083816],[64.3919932866386,39.77290233093184],[64.39160704854044,39.771975091862316],[64.39225077870407,39.76940856087599],[64.39332366231001,39.76454016628803],[64.39310908558885,39.76314913267529],[64.39244389775311,39.7596714246959],[64.39336657765426,39.75869432251295],[64.39398885014573,39.75809811770669],[64.39506173375167,39.75761783782947],[64.39647794011157,39.7567235145503],[64.40038323643728,39.75409016145473],[64.4003132432244,39.753309780148825],[64.405463084533,39.752663840477695],[64.40486226971369,39.75170320089849],[64.4030598252557,39.748324292530604],[64.39838205273372,39.736695596195275],[64.40039907391298,39.73623173250262],[64.41074167187443,39.73351475357277],[64.42687784130801,39.729372809701765],[64.42855153973332,39.729372809701765]]]},"properties":{"description":"Free","fill":"#56db40","fill-opacity":0.6,"stroke":"#56db40","stroke-width":"5","stroke-opacity":0.9}},{"type":"Feature","id":1,"geometry":{"type":"Polygon","coordinates":[[[64.3982103514456,39.73702790181418],[64.42661824965586,39.72941484665366],[64.43809810423967,39.72936514174596],[64.4518310143959,39.73334141312406],[64.44290462279433,39.75043674572199],[64.45869746947402,39.75666421528226],[64.45629421019666,39.77229663789989],[64.44839778685682,39.77335633367661],[64.44084468627092,39.7797141630265],[64.42797008299942,39.78183330792708],[64.42299190306777,39.784349707064685],[64.41372218871231,39.78395238705161],[64.41046062255022,39.78196575229942],[64.40376582884906,39.78183330792708],[64.39312282347797,39.777859857252665],[64.39106288695456,39.771634319659896],[64.39295116210101,39.76554069075727],[64.39140620970845,39.759843980832386],[64.39312282347797,39.75878407541422],[64.40016093993307,39.753616801051585],[64.40513911986467,39.75295430172081],[64.38908878111947,39.7139880507962],[64.44994273924944,39.701392169293094],[64.46041408324358,39.718760621219886],[64.46676555419086,39.7377150446011],[64.4634165715619,39.754655953246946],[64.47388791555603,39.76843427363745],[64.47955274099547,39.7963798277871],[64.46444653982363,39.78750736050376],[64.45122861379824,39.78446132221007],[64.44556378835874,39.79227479973749],[64.43595075124938,39.79823363048033],[64.41912793630797,39.808561037773],[64.39423703664976,39.82365212833835],[64.36627768987908,39.78144825848725],[64.35426139349237,39.75866387542812],[64.35288810247674,39.739582732902996],[64.36850928777974,39.721291639510596],[64.38910865301413,39.7142654993386],[64.3982103514456,39.73702790181418]]]},"properties":{"description":"80 000","fill":"#ed4543","fill-opacity":0.6,"stroke":"#ed4543","stroke-width":"5","stroke-opacity":0.9}}]}